ORBCOMM FM05            
1 25117U 97084F   24188.38271619  .00001525  00000+0  49344-3 0  9993
2 25117  45.0146 224.9539 0004866 284.6084  75.4227 14.43021559390607
ORBCOMM FM06            
1 25118U 97084G   24188.57330090  .00001458  00000+0  47288-3 0  9994
2 25118  45.0138 224.1798 0004065 290.9830 206.5976 14.43102161391549
ORBCOMM FM07            
1 25119U 97084H   24188.54164961  .00001450  00000+0  47145-3 0  9998
2 25119  45.0134 224.9045 0005553 279.1736  80.8486 14.43004180391536
ORBCOMM FM03            
1 25158U 98007B   24188.58043957  .00001531  00000+0  60660-3 0  9999
2 25158 107.9695 146.5806 0045641 133.0556 227.4418 14.32394781374513
ORBCOMM FM04            
1 25159U 98007C   24188.55840837  .00001510  00000+0  59717-3 0  9997
2 25159 107.9691 149.5120 0041234 130.8163 229.6563 14.32663898374686
ORBCOMM FM17            
1 25413U 98046A   24188.78832613  .00001067  00000+0  43420-3 0  9992
2 25413  44.9953  85.6878 0002416 303.6449  56.4166 14.33345255353751
ORBCOMM FM18            
1 25414U 98046B   24188.87970165  .00001524  00000+0  56581-3 0  9998
2 25414  44.9947  11.1174 0003129 337.3031  22.7678 14.36181008354731
ORBCOMM FM19            
1 25415U 98046C   24188.58319758  .00001470  00000+0  54959-3 0  9999
2 25415  44.9957  14.0076 0002063 321.0059  85.8295 14.36010950354486
