<?xml version="1.0" encoding="UTF-8"?>
<ndm xmlns:xsi="http://www.w3.org/2001/XMLSchema-instance" xsi:noNamespaceSchemaLocation="https://sanaregistry.org/r/ndmxml_unqualified/ndmxml-2.0.0-master-2.0.xsd">
<omm id="CCSDS_OMM_VERS" version="2.0">
<header><CREATION_DATE/><ORIGINATOR/></header><body><segment><metadata><OBJECT_NAME>ORBCOMM FM05</OBJECT_NAME><OBJECT_ID>1997-084F</OBJECT_ID><CENTER_NAME>EARTH</CENTER_NAME><REF_FRAME>TEME</REF_FRAME><TIME_SYSTEM>UTC</TIME_SYSTEM><MEAN_ELEMENT_THEORY>SGP4</MEAN_ELEMENT_THEORY></metadata><data><meanElements><EPOCH>2024-07-06T09:11:06.678816</EPOCH><MEAN_MOTION>14.43021559</MEAN_MOTION><ECCENTRICITY>.0004866</ECCENTRICITY><INCLINATION>45.0146</INCLINATION><RA_OF_ASC_NODE>224.9539</RA_OF_ASC_NODE><ARG_OF_PERICENTER>284.6084</ARG_OF_PERICENTER><MEAN_ANOMALY>75.4227</MEAN_ANOMALY></meanElements><tleParameters><EPHEMERIS_TYPE>0</EPHEMERIS_TYPE><CLASSIFICATION_TYPE>U</CLASSIFICATION_TYPE><NORAD_CAT_ID>25117</NORAD_CAT_ID><ELEMENT_SET_NO>999</ELEMENT_SET_NO><REV_AT_EPOCH>39060</REV_AT_EPOCH><BSTAR>.49344E-3</BSTAR><MEAN_MOTION_DOT>.1525E-4</MEAN_MOTION_DOT><MEAN_MOTION_DDOT>0</MEAN_MOTION_DDOT></tleParameters></data></segment></body></omm>
<omm id="CCSDS_OMM_VERS" version="2.0">
<header><CREATION_DATE/><ORIGINATOR/></header><body><segment><metadata><OBJECT_NAME>ORBCOMM FM06</OBJECT_NAME><OBJECT_ID>1997-084G</OBJECT_ID><CENTER_NAME>EARTH</CENTER_NAME><REF_FRAME>TEME</REF_FRAME><TIME_SYSTEM>UTC</TIME_SYSTEM><MEAN_ELEMENT_THEORY>SGP4</MEAN_ELEMENT_THEORY></metadata><data><meanElements><EPOCH>2024-07-06T13:45:33.197760</EPOCH><MEAN_MOTION>14.43102161</MEAN_MOTION><ECCENTRICITY>.0004065</ECCENTRICITY><INCLINATION>45.0138</INCLINATION><RA_OF_ASC_NODE>224.1798</RA_OF_ASC_NODE><ARG_OF_PERICENTER>290.9830</ARG_OF_PERICENTER><MEAN_ANOMALY>206.5976</MEAN_ANOMALY></meanElements><tleParameters><EPHEMERIS_TYPE>0</EPHEMERIS_TYPE><CLASSIFICATION_TYPE>U</CLASSIFICATION_TYPE><NORAD_CAT_ID>25118</NORAD_CAT_ID><ELEMENT_SET_NO>999</ELEMENT_SET_NO><REV_AT_EPOCH>39154</REV_AT_EPOCH><BSTAR>.47288E-3</BSTAR><MEAN_MOTION_DOT>.1458E-4</MEAN_MOTION_DOT><MEAN_MOTION_DDOT>0</MEAN_MOTION_DDOT></tleParameters></data></segment></body></omm>
<omm id="CCSDS_OMM_VERS" version="2.0">
<header><CREATION_DATE/><ORIGINATOR/></header><body><segment><metadata><OBJECT_NAME>ORBCOMM FM07</OBJECT_NAME><OBJECT_ID>1997-084H</OBJECT_ID><CENTER_NAME>EARTH</CENTER_NAME><REF_FRAME>TEME</REF_FRAME><TIME_SYSTEM>UTC</TIME_SYSTEM><MEAN_ELEMENT_THEORY>SGP4</MEAN_ELEMENT_THEORY></metadata><data><meanElements><EPOCH>2024-07-06T12:59:58.526304</EPOCH><MEAN_MOTION>14.43004180</MEAN_MOTION><ECCENTRICITY>.0005553</ECCENTRICITY><INCLINATION>45.0134</INCLINATION><RA_OF_ASC_NODE>224.9045</RA_OF_ASC_NODE><ARG_OF_PERICENTER>279.1736</ARG_OF_PERICENTER><MEAN_ANOMALY>80.8486</MEAN_ANOMALY></meanElements><tleParameters><EPHEMERIS_TYPE>0</EPHEMERIS_TYPE><CLASSIFICATION_TYPE>U</CLASSIFICATION_TYPE><NORAD_CAT_ID>25119</NORAD_CAT_ID><ELEMENT_SET_NO>999</ELEMENT_SET_NO><REV_AT_EPOCH>39153</REV_AT_EPOCH><BSTAR>.47145E-3</BSTAR><MEAN_MOTION_DOT>.145E-4</MEAN_MOTION_DOT><MEAN_MOTION_DDOT>0</MEAN_MOTION_DDOT></tleParameters></data></segment></body></omm>
<omm id="CCSDS_OMM_VERS" version="2.0">
<header><CREATION_DATE/><ORIGINATOR/></header><body><segment><metadata><OBJECT_NAME>ORBCOMM FM03</OBJECT_NAME><OBJECT_ID>1998-007B</OBJECT_ID><CENTER_NAME>EARTH</CENTER_NAME><REF_FRAME>TEME</REF_FRAME><TIME_SYSTEM>UTC</TIME_SYSTEM><MEAN_ELEMENT_THEORY>SGP4</MEAN_ELEMENT_THEORY></metadata><data><meanElements><EPOCH>2024-07-06T13:55:49.978848</EPOCH><MEAN_MOTION>14.32394781</MEAN_MOTION><ECCENTRICITY>.0045641</ECCENTRICITY><INCLINATION>107.9695</INCLINATION><RA_OF_ASC_NODE>146.5806</RA_OF_ASC_NODE><ARG_OF_PERICENTER>133.0556</ARG_OF_PERICENTER><MEAN_ANOMALY>227.4418</MEAN_ANOMALY></meanElements><tleParameters><EPHEMERIS_TYPE>0</EPHEMERIS_TYPE><CLASSIFICATION_TYPE>U</CLASSIFICATION_TYPE><NORAD_CAT_ID>25158</NORAD_CAT_ID><ELEMENT_SET_NO>999</ELEMENT_SET_NO><REV_AT_EPOCH>37451</REV_AT_EPOCH><BSTAR>.6066E-3</BSTAR><MEAN_MOTION_DOT>.1531E-4</MEAN_MOTION_DOT><MEAN_MOTION_DDOT>0</MEAN_MOTION_DDOT></tleParameters></data></segment></body></omm>
<omm id="CCSDS_OMM_VERS" version="2.0">
<header><CREATION_DATE/><ORIGINATOR/></header><body><segment><metadata><OBJECT_NAME>ORBCOMM FM04</OBJECT_NAME><OBJECT_ID>1998-007C</OBJECT_ID><CENTER_NAME>EARTH</CENTER_NAME><REF_FRAME>TEME</REF_FRAME><TIME_SYSTEM>UTC</TIME_SYSTEM><MEAN_ELEMENT_THEORY>SGP4</MEAN_ELEMENT_THEORY></metadata><data><meanElements><EPOCH>2024-07-06T13:24:06.483168</EPOCH><MEAN_MOTION>14.32663898</MEAN_MOTION><ECCENTRICITY>.0041234</ECCENTRICITY><INCLINATION>107.9691</INCLINATION><RA_OF_ASC_NODE>149.5120</RA_OF_ASC_NODE><ARG_OF_PERICENTER>130.8163</ARG_OF_PERICENTER><MEAN_ANOMALY>229.6563</MEAN_ANOMALY></meanElements><tleParameters><EPHEMERIS_TYPE>0</EPHEMERIS_TYPE><CLASSIFICATION_TYPE>U</CLASSIFICATION_TYPE><NORAD_CAT_ID>25159</NORAD_CAT_ID><ELEMENT_SET_NO>999</ELEMENT_SET_NO><REV_AT_EPOCH>37468</REV_AT_EPOCH><BSTAR>.59717E-3</BSTAR><MEAN_MOTION_DOT>.151E-4</MEAN_MOTION_DOT><MEAN_MOTION_DDOT>0</MEAN_MOTION_DDOT></tleParameters></data></segment></body></omm>
<omm id="CCSDS_OMM_VERS" version="2.0">
<header><CREATION_DATE/><ORIGINATOR/></header><body><segment><metadata><OBJECT_NAME>ORBCOMM FM17</OBJECT_NAME><OBJECT_ID>1998-046A</OBJECT_ID><CENTER_NAME>EARTH</CENTER_NAME><REF_FRAME>TEME</REF_FRAME><TIME_SYSTEM>UTC</TIME_SYSTEM><MEAN_ELEMENT_THEORY>SGP4</MEAN_ELEMENT_THEORY></metadata><data><meanElements><EPOCH>2024-07-06T18:55:11.377632</EPOCH><MEAN_MOTION>14.33345255</MEAN_MOTION><ECCENTRICITY>.0002416</ECCENTRICITY><INCLINATION>44.9953</INCLINATION><RA_OF_ASC_NODE>85.6878</RA_OF_ASC_NODE><ARG_OF_PERICENTER>303.6449</ARG_OF_PERICENTER><MEAN_ANOMALY>56.4166</MEAN_ANOMALY></meanElements><tleParameters><EPHEMERIS_TYPE>0</EPHEMERIS_TYPE><CLASSIFICATION_TYPE>U</CLASSIFICATION_TYPE><NORAD_CAT_ID>25413</NORAD_CAT_ID><ELEMENT_SET_NO>999</ELEMENT_SET_NO><REV_AT_EPOCH>35375</REV_AT_EPOCH><BSTAR>.4342E-3</BSTAR><MEAN_MOTION_DOT>.1067E-4</MEAN_MOTION_DOT><MEAN_MOTION_DDOT>0</MEAN_MOTION_DDOT></tleParameters></data></segment></body></omm>
<omm id="CCSDS_OMM_VERS" version="2.0">
<header><CREATION_DATE/><ORIGINATOR/></header><body><segment><metadata><OBJECT_NAME>ORBCOMM FM18</OBJECT_NAME><OBJECT_ID>1998-046B</OBJECT_ID><CENTER_NAME>EARTH</CENTER_NAME><REF_FRAME>TEME</REF_FRAME><TIME_SYSTEM>UTC</TIME_SYSTEM><MEAN_ELEMENT_THEORY>SGP4</MEAN_ELEMENT_THEORY></metadata><data><meanElements><EPOCH>2024-07-06T21:06:46.222560</EPOCH><MEAN_MOTION>14.36181008</MEAN_MOTION><ECCENTRICITY>.0003129</ECCENTRICITY><INCLINATION>44.9947</INCLINATION><RA_OF_ASC_NODE>11.1174</RA_OF_ASC_NODE><ARG_OF_PERICENTER>337.3031</ARG_OF_PERICENTER><MEAN_ANOMALY>22.7678</MEAN_ANOMALY></meanElements><tleParameters><EPHEMERIS_TYPE>0</EPHEMERIS_TYPE><CLASSIFICATION_TYPE>U</CLASSIFICATION_TYPE><NORAD_CAT_ID>25414</NORAD_CAT_ID><ELEMENT_SET_NO>999</ELEMENT_SET_NO><REV_AT_EPOCH>35473</REV_AT_EPOCH><BSTAR>.56581E-3</BSTAR><MEAN_MOTION_DOT>.1524E-4</MEAN_MOTION_DOT><MEAN_MOTION_DDOT>0</MEAN_MOTION_DDOT></tleParameters></data></segment></body></omm>
<omm id="CCSDS_OMM_VERS" version="2.0">
<header><CREATION_DATE/><ORIGINATOR/></header><body><segment><metadata><OBJECT_NAME>ORBCOMM FM19</OBJECT_NAME><OBJECT_ID>1998-046C</OBJECT_ID><CENTER_NAME>EARTH</CENTER_NAME><REF_FRAME>TEME</REF_FRAME><TIME_SYSTEM>UTC</TIME_SYSTEM><MEAN_ELEMENT_THEORY>SGP4</MEAN_ELEMENT_THEORY></metadata><data><meanElements><EPOCH>2024-07-06T13:59:48.270912</EPOCH><MEAN_MOTION>14.36010950</MEAN_MOTION><ECCENTRICITY>.0002063</ECCENTRICITY><INCLINATION>44.9957</INCLINATION><RA_OF_ASC_NODE>14.0076</RA_OF_ASC_NODE><ARG_OF_PERICENTER>321.0059</ARG_OF_PERICENTER><MEAN_ANOMALY>85.8295</MEAN_ANOMALY></meanElements><tleParameters><EPHEMERIS_TYPE>0</EPHEMERIS_TYPE><CLASSIFICATION_TYPE>U</CLASSIFICATION_TYPE><NORAD_CAT_ID>25415</NORAD_CAT_ID><ELEMENT_SET_NO>999</ELEMENT_SET_NO><REV_AT_EPOCH>35448</REV_AT_EPOCH><BSTAR>.54959E-3</BSTAR><MEAN_MOTION_DOT>.147E-4</MEAN_MOTION_DOT><MEAN_MOTION_DDOT>0</MEAN_MOTION_DDOT></tleParameters></data></segment></body></omm>

</ndm>
